{
  "type": "FeatureCollection",
  "features": [
    {
      "type": "Feature",
      "properties": {
        "norad_id": 66618,
        "name": "STARLINK-35970",
        "group": "last-30-days",
        "lat": -26.855283931466136,
        "lon": -39.55269560561979,
        "alt_km": 451.2043387460617,
        "timestamp": "2025-12-27T05:29:37.915258+00:00",
        "meta_object_name": "STARLINK-35970",
        "meta_object_id": "2025-271B",
        "meta_epoch": "2025-12-26T22:00:01.999584",
        "meta_mean_motion": 15.39662775,
        "meta_eccentricity": 7.09e-05,
        "meta_inclination": 53.1598,
        "meta_ra_of_asc_node": 119.6088,
        "meta_arg_of_pericenter": 75.3495,
        "meta_mean_anomaly": 207.4016,
        "meta_ephemeris_type": 0,
        "meta_classification_type": "U",
        "meta_norad_cat_id": 66618,
        "meta_element_set_no": 999,
        "meta_rev_at_epoch": 609,
        "meta_bstar": -0.0014920673,
        "meta_mean_motion_dot": -0.00059697,
        "meta_mean_motion_ddot": 0,
        "tle_line1": "1 66618U 25271B   25360.91668981 -.00059697  00000+0 -14921-2 0  9994",
        "tle_line2": "2 66618  53.1598 119.6088 0000709  75.3495 207.4016 15.39662775  6098"
      },
      "geometry": {
        "type": "Point",
        "coordinates": [
          -39.55269560561979,
          -26.855283931466136
        ]
      }
    },
    {
      "type": "Feature",
      "properties": {
        "norad_id": 66619,
        "name": "STARLINK-35951",
        "group": "last-30-days",
        "lat": 48.92041209594213,
        "lon": -120.97419024932113,
        "alt_km": 439.8466465526435,
        "timestamp": "2025-12-27T05:29:37.915268+00:00",
        "meta_object_name": "STARLINK-35951",
        "meta_object_id": "2025-271C",
        "meta_epoch": "2025-12-26T18:06:53.714304",
        "meta_mean_motion": 15.39632334,
        "meta_eccentricity": 0.00011591,
        "meta_inclination": 53.1592,
        "meta_ra_of_asc_node": 120.5839,
        "meta_arg_of_pericenter": 71.4023,
        "meta_mean_anomaly": 288.7108,
        "meta_ephemeris_type": 0,
        "meta_classification_type": "U",
        "meta_norad_cat_id": 66619,
        "meta_element_set_no": 999,
        "meta_rev_at_epoch": 637,
        "meta_bstar": 0.0013808818,
        "meta_mean_motion_dot": 0.00055258,
        "meta_mean_motion_ddot": 0,
        "tle_line1": "1 66619U 25271C   25360.75478836  .00055258  00000+0  13809-2 0  9996",
        "tle_line2": "2 66619  53.1592 120.5839 0001159  71.4023 288.7108 15.39632334  6375"
      },
      "geometry": {
        "type": "Point",
        "coordinates": [
          -120.97419024932113,
          48.92041209594213
        ]
      }
    },
    {
      "type": "Feature",
      "properties": {
        "norad_id": 66620,
        "name": "STARLINK-35936",
        "group": "last-30-days",
        "lat": 42.726964324682406,
        "lon": 162.282257386458,
        "alt_km": 440.67600202890753,
        "timestamp": "2025-12-27T05:29:37.915280+00:00",
        "meta_object_name": "STARLINK-35936",
        "meta_object_id": "2025-271D",
        "meta_epoch": "2025-12-26T15:13:18.984000",
        "meta_mean_motion": 15.39625311,
        "meta_eccentricity": 0.00011899,
        "meta_inclination": 53.1591,
        "meta_ra_of_asc_node": 121.2574,
        "meta_arg_of_pericenter": 86.1076,
        "meta_mean_anomaly": 274.0065,
        "meta_ephemeris_type": 0,
        "meta_classification_type": "U",
        "meta_norad_cat_id": 66620,
        "meta_element_set_no": 999,
        "meta_rev_at_epoch": 635,
        "meta_bstar": 0.001325608,
        "meta_mean_motion_dot": 0.00053002,
        "meta_mean_motion_ddot": 0,
        "tle_line1": "1 66620U 25271D   25360.63424750  .00053002  00000+0  13256-2 0  9992",
        "tle_line2": "2 66620  53.1591 121.2574 0001189  86.1076 274.0065 15.39625311  6359"
      },
      "geometry": {
        "type": "Point",
        "coordinates": [
          162.282257386458,
          42.726964324682406
        ]
      }
    },
    {
      "type": "Feature",
      "properties": {
        "norad_id": 66621,
        "name": "STARLINK-35847",
        "group": "last-30-days",
        "lat": -43.9260170410383,
        "lon": -15.683649924189341,
        "alt_km": 452.85471236268586,
        "timestamp": "2025-12-27T05:29:37.915290+00:00",
        "meta_object_name": "STARLINK-35847",
        "meta_object_id": "2025-271E",
        "meta_epoch": "2025-12-26T22:00:01.999584",
        "meta_mean_motion": 15.39585547,
        "meta_eccentricity": 0.00015137,
        "meta_inclination": 53.1596,
        "meta_ra_of_asc_node": 119.5569,
        "meta_arg_of_pericenter": 55.7043,
        "meta_mean_anomaly": 252.8857,
        "meta_ephemeris_type": 0,
        "meta_classification_type": "U",
        "meta_norad_cat_id": 66621,
        "meta_element_set_no": 999,
        "meta_rev_at_epoch": 609,
        "meta_bstar": 0.00068924662,
        "meta_mean_motion_dot": 0.00027237,
        "meta_mean_motion_ddot": 0,
        "tle_line1": "1 66621U 25271E   25360.91668981  .00027237  00000+0  68925-3 0  9995",
        "tle_line2": "2 66621  53.1596 119.5569 0001513  55.7043 252.8857 15.39585547  6096"
      },
      "geometry": {
        "type": "Point",
        "coordinates": [
          -15.683649924189341,
          -43.9260170410383
        ]
      }
    },
    {
      "type": "Feature",
      "properties": {
        "norad_id": 66622,
        "name": "STARLINK-35950",
        "group": "last-30-days",
        "lat": -15.019538121144723,
        "lon": 107.00057004056536,
        "alt_km": 449.508198306321,
        "timestamp": "2025-12-27T05:29:37.915300+00:00",
        "meta_object_name": "STARLINK-35950",
        "meta_object_id": "2025-271F",
        "meta_epoch": "2025-12-26T13:59:50.932032",
        "meta_mean_motion": 15.39717652,
        "meta_eccentricity": 7.887e-05,
        "meta_inclination": 53.1597,
        "meta_ra_of_asc_node": 121.6494,
        "meta_arg_of_pericenter": 82.1022,
        "meta_mean_anomaly": 278.0073,
        "meta_ephemeris_type": 0,
        "meta_classification_type": "U",
        "meta_norad_cat_id": 66622,
        "meta_element_set_no": 999,
        "meta_rev_at_epoch": 634,
        "meta_bstar": 0.0011765208,
        "meta_mean_motion_dot": 0.00047103,
        "meta_mean_motion_ddot": 0,
        "tle_line1": "1 66622U 25271F   25360.58322838  .00047103  00000+0  11765-2 0  9990",
        "tle_line2": "2 66622  53.1597 121.6494 0000788  82.1022 278.0073 15.39717652  6345"
      },
      "geometry": {
        "type": "Point",
        "coordinates": [
          107.00057004056536,
          -15.019538121144723
        ]
      }
    },
    {
      "type": "Feature",
      "properties": {
        "norad_id": 66623,
        "name": "STARLINK-35920",
        "group": "last-30-days",
        "lat": -49.037716278834125,
        "lon": 58.9863370756203,
        "alt_km": 451.9136482547592,
        "timestamp": "2025-12-27T05:29:37.915312+00:00",
        "meta_object_name": "STARLINK-35920",
        "meta_object_id": "2025-271G",
        "meta_epoch": "2025-12-26T14:13:16.250016",
        "meta_mean_motion": 15.3965013,
        "meta_eccentricity": 4.27e-05,
        "meta_inclination": 53.1606,
        "meta_ra_of_asc_node": 121.7067,
        "meta_arg_of_pericenter": 62.266,
        "meta_mean_anomaly": 297.8388,
        "meta_ephemeris_type": 0,
        "meta_classification_type": "U",
        "meta_norad_cat_id": 66623,
        "meta_element_set_no": 999,
        "meta_rev_at_epoch": 634,
        "meta_bstar": 0.00099486,
        "meta_mean_motion_dot": 0.00039641,
        "meta_mean_motion_ddot": 0,
        "tle_line1": "1 66623U 25271G   25360.59254919  .00039641  00000+0  99486-3 0  9991",
        "tle_line2": "2 66623  53.1606 121.7067 0000427  62.2660 297.8388 15.39650130  6346"
      },
      "geometry": {
        "type": "Point",
        "coordinates": [
          58.9863370756203,
          -49.037716278834125
        ]
      }
    },
    {
      "type": "Feature",
      "properties": {
        "norad_id": 66624,
        "name": "STARLINK-35927",
        "group": "last-30-days",
        "lat": 34.24836991658737,
        "lon": -92.39206243443029,
        "alt_km": 442.72678754040317,
        "timestamp": "2025-12-27T05:29:37.915322+00:00",
        "meta_object_name": "STARLINK-35927",
        "meta_object_id": "2025-271H",
        "meta_epoch": "2025-12-26T22:00:01.999584",
        "meta_mean_motion": 15.39592147,
        "meta_eccentricity": 6.461e-05,
        "meta_inclination": 53.1597,
        "meta_ra_of_asc_node": 119.7725,
        "meta_arg_of_pericenter": 74.2022,
        "meta_mean_anomaly": 129.5449,
        "meta_ephemeris_type": 0,
        "meta_classification_type": "U",
        "meta_norad_cat_id": 66624,
        "meta_element_set_no": 999,
        "meta_rev_at_epoch": 608,
        "meta_bstar": 0.00057123457,
        "meta_mean_motion_dot": 0.00022496,
        "meta_mean_motion_ddot": 0,
        "tle_line1": "1 66624U 25271H   25360.91668981  .00022496  00000+0  57123-3 0  9998",
        "tle_line2": "2 66624  53.1597 119.7725 0000646  74.2022 129.5449 15.39592147  6085"
      },
      "geometry": {
        "type": "Point",
        "coordinates": [
          -92.39206243443029,
          34.24836991658737
        ]
      }
    }
  ]
}